2026-027G               
1 67752U 26027G   26061.84023545  .00012479  00000+0  61484-3 0  9998
2 67752  97.4900 190.9428 0009436 232.8672 127.1700 15.18058121  2825
2026-027H               
1 67753U 26027H   26061.82600575  .00408581  23764-5  63769-3 0  9990
2 67753  97.5125 192.3120 0235243 270.1281  87.3027 15.69176826  2906
2026-027J               
1 67754U 26027J   26061.78926352  .01400026  24398-5  12554-2 0  9996
2 67754  97.5072 192.5117 0170675 269.2302  88.9413 15.89410831  2855
2026-028A               
1 67756U 26028A   26061.31263923 -.00000069  00000+0  00000+0 0  9997
2 67756   0.4879 289.4242 0042011 229.4458 201.2665  0.99524422   182
KUIPER-00159            
1 67764U 26030A   26061.79884406  .00035854  00000+0  10327-2 0  9991
2 67764  51.8839 252.3906 0004320  27.3456 332.7757 15.35399051  4031
KUIPER-00160            
1 67765U 26030B   26061.79978985  .00025370  00000+0  73709-3 0  9994
2 67765  51.8800 252.3887 0004345  38.6715 321.4581 15.35308595  4031
KUIPER-00177            
1 67766U 26030C   26061.78917555  .00026502  00000+0  74857-3 0  9993
2 67766  51.8825 252.3243 0000516  22.8074 337.2936 15.36173643  4038
KUIPER-00178            
1 67767U 26030D   26061.80140372  .00026410  00000+0  76967-3 0  9994
2 67767  51.8822 252.4041 0005713  28.2040 331.9254 15.35183268  4037
KUIPER-00180            
1 67768U 26030E   26061.76140976  .00013797  00000+0  44634-3 0  9990
2 67768  51.8800 252.8738 0015473  48.3534 311.8773 15.32234544  4029
KUIPER-00197            
1 67769U 26030F   26061.79110995  .00038342  00000+0  10805-2 0  9997
2 67769  51.8831 252.3379 0001130  61.2630 298.8470 15.36057851  4033
KUIPER-00198            
1 67770U 26030G   26061.79536447  .00026527  00000+0  76082-3 0  9995
2 67770  51.8802 252.3607 0002763  33.2378 326.8781 15.35693464  4030
KUIPER-00199            
1 67771U 26030H   26061.74915324  .00025239  00000+0  76270-3 0  9994
2 67771  51.8796 252.7951 0010299  41.1771 318.9990 15.34031542  4022
KUIPER-00200            
1 67772U 26030J   26061.78388865  .00034158  00000+0  94484-3 0  9990
2 67772  51.8809 252.2882 0001624 202.8795 157.2120 15.36694429  4031
KUIPER-00203            
1 67773U 26030K   26061.83335647 -.01073762  00000+0 -42714-1 0  9991
2 67773  51.8807 252.4882 0012095  41.4197   3.9804 15.27560729  2601
KUIPER-00205            
1 67774U 26030L   26061.79183070  .00026797  00000+0  76013-3 0  9992
2 67774  51.8803 252.3378 0002276   2.2384 357.8612 15.36033799  4039
KUIPER-00208            
1 67775U 26030M   26061.75953252  .00000242  00000+0  19293-4 0  9991
2 67775  51.8827 252.8692 0014425  43.6427 316.5696 15.32852175  4022
KUIPER-00209            
1 67776U 26030N   26061.76220629  .00021556  00000+0  70766-3 0  9990
2 67776  51.8820 252.8845 0013313  44.4841 315.7210 15.31447238  4022
