[{"OBJECT_NAME":"2026-027G","OBJECT_ID":"2026-027G","EPOCH":"2026-03-02T20:09:56.342880","MEAN_MOTION":15.18058121,"ECCENTRICITY":0.0009436,"INCLINATION":97.49,"RA_OF_ASC_NODE":190.9428,"ARG_OF_PERICENTER":232.8672,"MEAN_ANOMALY":127.17,"EPHEMERIS_TYPE":0,"CLASSIFICATION_TYPE":"U","NORAD_CAT_ID":67752,"ELEMENT_SET_NO":999,"REV_AT_EPOCH":282,"BSTAR":0.00061484,"MEAN_MOTION_DOT":0.00012479,"MEAN_MOTION_DDOT":0},{"OBJECT_NAME":"2026-027H","OBJECT_ID":"2026-027H","EPOCH":"2026-03-02T19:49:26.896800","MEAN_MOTION":15.69176826,"ECCENTRICITY":0.0235243,"INCLINATION":97.5125,"RA_OF_ASC_NODE":192.312,"ARG_OF_PERICENTER":270.1281,"MEAN_ANOMALY":87.3027,"EPHEMERIS_TYPE":0,"CLASSIFICATION_TYPE":"U","NORAD_CAT_ID":67753,"ELEMENT_SET_NO":999,"REV_AT_EPOCH":290,"BSTAR":0.00063769,"MEAN_MOTION_DOT":0.00408581,"MEAN_MOTION_DDOT":2.3764e-6},{"OBJECT_NAME":"2026-027J","OBJECT_ID":"2026-027J","EPOCH":"2026-03-02T18:56:32.368128","MEAN_MOTION":15.89410831,"ECCENTRICITY":0.0170675,"INCLINATION":97.5072,"RA_OF_ASC_NODE":192.5117,"ARG_OF_PERICENTER":269.2302,"MEAN_ANOMALY":88.9413,"EPHEMERIS_TYPE":0,"CLASSIFICATION_TYPE":"U","NORAD_CAT_ID":67754,"ELEMENT_SET_NO":999,"REV_AT_EPOCH":285,"BSTAR":0.0012554,"MEAN_MOTION_DOT":0.01400026,"MEAN_MOTION_DDOT":2.4398e-6},{"OBJECT_NAME":"2026-028A","OBJECT_ID":"2026-028A","EPOCH":"2026-03-02T07:30:12.029472","MEAN_MOTION":0.99524422,"ECCENTRICITY":0.0042011,"INCLINATION":0.4879,"RA_OF_ASC_NODE":289.4242,"ARG_OF_PERICENTER":229.4458,"MEAN_ANOMALY":201.2665,"EPHEMERIS_TYPE":0,"CLASSIFICATION_TYPE":"U","NORAD_CAT_ID":67756,"ELEMENT_SET_NO":999,"REV_AT_EPOCH":18,"BSTAR":0,"MEAN_MOTION_DOT":-6.9e-7,"MEAN_MOTION_DDOT":0},{"OBJECT_NAME":"KUIPER-00159","OBJECT_ID":"2026-030A","EPOCH":"2026-03-02T19:10:20.126784","MEAN_MOTION":15.35399051,"ECCENTRICITY":0.000432,"INCLINATION":51.8839,"RA_OF_ASC_NODE":252.3906,"ARG_OF_PERICENTER":27.3456,"MEAN_ANOMALY":332.7757,"EPHEMERIS_TYPE":0,"CLASSIFICATION_TYPE":"U","NORAD_CAT_ID":67764,"ELEMENT_SET_NO":999,"REV_AT_EPOCH":403,"BSTAR":0.0010327,"MEAN_MOTION_DOT":0.00035854,"MEAN_MOTION_DDOT":0},{"OBJECT_NAME":"KUIPER-00160","OBJECT_ID":"2026-030B","EPOCH":"2026-03-02T19:11:41.843040","MEAN_MOTION":15.35308595,"ECCENTRICITY":0.0004345,"INCLINATION":51.88,"RA_OF_ASC_NODE":252.3887,"ARG_OF_PERICENTER":38.6715,"MEAN_ANOMALY":321.4581,"EPHEMERIS_TYPE":0,"CLASSIFICATION_TYPE":"U","NORAD_CAT_ID":67765,"ELEMENT_SET_NO":999,"REV_AT_EPOCH":403,"BSTAR":0.00073709,"MEAN_MOTION_DOT":0.0002537,"MEAN_MOTION_DDOT":0},{"OBJECT_NAME":"KUIPER-00177","OBJECT_ID":"2026-030C","EPOCH":"2026-03-02T18:56:24.767520","MEAN_MOTION":15.36173643,"ECCENTRICITY":5.16e-5,"INCLINATION":51.8825,"RA_OF_ASC_NODE":252.3243,"ARG_OF_PERICENTER":22.8074,"MEAN_ANOMALY":337.2936,"EPHEMERIS_TYPE":0,"CLASSIFICATION_TYPE":"U","NORAD_CAT_ID":67766,"ELEMENT_SET_NO":999,"REV_AT_EPOCH":403,"BSTAR":0.00074857,"MEAN_MOTION_DOT":0.00026502,"MEAN_MOTION_DDOT":0},{"OBJECT_NAME":"KUIPER-00178","OBJECT_ID":"2026-030D","EPOCH":"2026-03-02T19:14:01.281408","MEAN_MOTION":15.35183268,"ECCENTRICITY":0.0005713,"INCLINATION":51.8822,"RA_OF_ASC_NODE":252.4041,"ARG_OF_PERICENTER":28.204,"MEAN_ANOMALY":331.9254,"EPHEMERIS_TYPE":0,"CLASSIFICATION_TYPE":"U","NORAD_CAT_ID":67767,"ELEMENT_SET_NO":999,"REV_AT_EPOCH":403,"BSTAR":0.00076967,"MEAN_MOTION_DOT":0.0002641,"MEAN_MOTION_DDOT":0},{"OBJECT_NAME":"KUIPER-00180","OBJECT_ID":"2026-030E","EPOCH":"2026-03-02T18:16:25.803264","MEAN_MOTION":15.32234544,"ECCENTRICITY":0.0015473,"INCLINATION":51.88,"RA_OF_ASC_NODE":252.8738,"ARG_OF_PERICENTER":48.3534,"MEAN_ANOMALY":311.8773,"EPHEMERIS_TYPE":0,"CLASSIFICATION_TYPE":"U","NORAD_CAT_ID":67768,"ELEMENT_SET_NO":999,"REV_AT_EPOCH":402,"BSTAR":0.00044634,"MEAN_MOTION_DOT":0.00013797,"MEAN_MOTION_DDOT":0},{"OBJECT_NAME":"KUIPER-00197","OBJECT_ID":"2026-030F","EPOCH":"2026-03-02T18:59:11.899680","MEAN_MOTION":15.36057851,"ECCENTRICITY":0.000113,"INCLINATION":51.8831,"RA_OF_ASC_NODE":252.3379,"ARG_OF_PERICENTER":61.263,"MEAN_ANOMALY":298.847,"EPHEMERIS_TYPE":0,"CLASSIFICATION_TYPE":"U","NORAD_CAT_ID":67769,"ELEMENT_SET_NO":999,"REV_AT_EPOCH":403,"BSTAR":0.0010805,"MEAN_MOTION_DOT":0.00038342,"MEAN_MOTION_DDOT":0},{"OBJECT_NAME":"KUIPER-00198","OBJECT_ID":"2026-030G","EPOCH":"2026-03-02T19:05:19.490208","MEAN_MOTION":15.35693464,"ECCENTRICITY":0.0002763,"INCLINATION":51.8802,"RA_OF_ASC_NODE":252.3607,"ARG_OF_PERICENTER":33.2378,"MEAN_ANOMALY":326.8781,"EPHEMERIS_TYPE":0,"CLASSIFICATION_TYPE":"U","NORAD_CAT_ID":67770,"ELEMENT_SET_NO":999,"REV_AT_EPOCH":403,"BSTAR":0.00076082,"MEAN_MOTION_DOT":0.00026527,"MEAN_MOTION_DDOT":0},{"OBJECT_NAME":"KUIPER-00199","OBJECT_ID":"2026-030H","EPOCH":"2026-03-02T17:58:46.839936","MEAN_MOTION":15.34031542,"ECCENTRICITY":0.0010299,"INCLINATION":51.8796,"RA_OF_ASC_NODE":252.7951,"ARG_OF_PERICENTER":41.1771,"MEAN_ANOMALY":318.999,"EPHEMERIS_TYPE":0,"CLASSIFICATION_TYPE":"U","NORAD_CAT_ID":67771,"ELEMENT_SET_NO":999,"REV_AT_EPOCH":402,"BSTAR":0.0007627,"MEAN_MOTION_DOT":0.00025239,"MEAN_MOTION_DDOT":0},{"OBJECT_NAME":"KUIPER-00200","OBJECT_ID":"2026-030J","EPOCH":"2026-03-02T18:48:47.979360","MEAN_MOTION":15.36694429,"ECCENTRICITY":0.0001624,"INCLINATION":51.8809,"RA_OF_ASC_NODE":252.2882,"ARG_OF_PERICENTER":202.8795,"MEAN_ANOMALY":157.212,"EPHEMERIS_TYPE":0,"CLASSIFICATION_TYPE":"U","NORAD_CAT_ID":67772,"ELEMENT_SET_NO":999,"REV_AT_EPOCH":403,"BSTAR":0.00094484,"MEAN_MOTION_DOT":0.00034158,"MEAN_MOTION_DDOT":0},{"OBJECT_NAME":"KUIPER-00203","OBJECT_ID":"2026-030K","EPOCH":"2026-03-02T20:00:01.999008","MEAN_MOTION":15.27560729,"ECCENTRICITY":0.0012095,"INCLINATION":51.8807,"RA_OF_ASC_NODE":252.4882,"ARG_OF_PERICENTER":41.4197,"MEAN_ANOMALY":3.9804,"EPHEMERIS_TYPE":0,"CLASSIFICATION_TYPE":"U","NORAD_CAT_ID":67773,"ELEMENT_SET_NO":999,"REV_AT_EPOCH":260,"BSTAR":-0.042714,"MEAN_MOTION_DOT":-0.01073762,"MEAN_MOTION_DDOT":0},{"OBJECT_NAME":"KUIPER-00205","OBJECT_ID":"2026-030L","EPOCH":"2026-03-02T19:00:14.172480","MEAN_MOTION":15.36033799,"ECCENTRICITY":0.0002276,"INCLINATION":51.8803,"RA_OF_ASC_NODE":252.3378,"ARG_OF_PERICENTER":2.2384,"MEAN_ANOMALY":357.8612,"EPHEMERIS_TYPE":0,"CLASSIFICATION_TYPE":"U","NORAD_CAT_ID":67774,"ELEMENT_SET_NO":999,"REV_AT_EPOCH":403,"BSTAR":0.00076013,"MEAN_MOTION_DOT":0.00026797,"MEAN_MOTION_DDOT":0},{"OBJECT_NAME":"KUIPER-00208","OBJECT_ID":"2026-030M","EPOCH":"2026-03-02T18:13:43.609728","MEAN_MOTION":15.32852175,"ECCENTRICITY":0.0014425,"INCLINATION":51.8827,"RA_OF_ASC_NODE":252.8692,"ARG_OF_PERICENTER":43.6427,"MEAN_ANOMALY":316.5696,"EPHEMERIS_TYPE":0,"CLASSIFICATION_TYPE":"U","NORAD_CAT_ID":67775,"ELEMENT_SET_NO":999,"REV_AT_EPOCH":402,"BSTAR":1.9293e-5,"MEAN_MOTION_DOT":2.42e-6,"MEAN_MOTION_DDOT":0},{"OBJECT_NAME":"KUIPER-00209","OBJECT_ID":"2026-030N","EPOCH":"2026-03-02T18:17:34.623456","MEAN_MOTION":15.31447238,"ECCENTRICITY":0.0013313,"INCLINATION":51.882,"RA_OF_ASC_NODE":252.8845,"ARG_OF_PERICENTER":44.4841,"MEAN_ANOMALY":315.721,"EPHEMERIS_TYPE":0,"CLASSIFICATION_TYPE":"U","NORAD_CAT_ID":67776,"ELEMENT_SET_NO":999,"REV_AT_EPOCH":402,"BSTAR":0.00070766,"MEAN_MOTION_DOT":0.00021556,"MEAN_MOTION_DDOT":0}]
